{
    "links": {
        "self": "http://www.neowsapp.com/rest/v1/neo/3708650?api_key=iIulBulltgU6a56xZRHN4H3l9WmuAYTsLGpBGhQ2"
    },
    "id": "3708650",
    "neo_reference_id": "3708650",
    "name": "(2015 BX509)",
    "designation": "2015 BX509",
    "nasa_jpl_url": "http://ssd.jpl.nasa.gov/sbdb.cgi?sstr=3708650",
    "absolute_magnitude_h": 23.2,
    "estimated_diameter": {
        "kilometers": {
            "estimated_diameter_min": 0.0608912622,
            "estimated_diameter_max": 0.1361570015
        },
        "meters": {
            "estimated_diameter_min": 60.8912622106,
            "estimated_diameter_max": 136.1570015386
        },
        "miles": {
            "estimated_diameter_min": 0.0378360645,
            "estimated_diameter_max": 0.0846040122
        },
        "feet": {
            "estimated_diameter_min": 199.7744887109,
            "estimated_diameter_max": 446.7093369279
        }
    },
    "is_potentially_hazardous_asteroid": false,
    "close_approach_data": [
        {
            "close_approach_date": "2015-02-05",
            "close_approach_date_full": "2015-Feb-05 15:24",
            "epoch_date_close_approach": 1423149840000,
            "relative_velocity": {
                "kilometers_per_second": "12.8853879625",
                "kilometers_per_hour": "46387.3966650364",
                "miles_per_hour": "28823.3243333388"
            },
            "miss_distance": {
                "astronomical": "0.0904421748",
                "lunar": "35.1820059972",
                "kilometers": "13529956.708247676",
                "miles": "8407125.2549268888"
            },
            "orbiting_body": "Earth"
        }
    ],
    "orbital_data": {
        "orbit_id": "10",
        "orbit_determination_date": "2017-04-06 08:36:04",
        "first_observation_date": "2015-01-20",
        "last_observation_date": "2015-02-11",
        "data_arc_in_days": 22,
        "observations_used": 23,
        "orbit_uncertainty": "8",
        "minimum_orbit_intersection": ".0589275",
        "jupiter_tisserand_invariant": "3.710",
        "epoch_osculation": "2457046.5",
        "eccentricity": ".5244316023655821",
        "semi_major_axis": "1.94342801714475",
        "inclination": "7.360710174675937",
        "ascending_node_longitude": "118.1856402421976",
        "orbital_period": "989.5804707166155",
        "perihelion_distance": ".9242329480313631",
        "perihelion_argument": "66.231442528",
        "aphelion_distance": "2.962623086258138",
        "perihelion_time": "2457093.739754639572",
        "mean_anomaly": "342.8146248097129",
        "mean_motion": ".3637905260390821",
        "equinox": "J2000",
        "orbit_class": {
            "orbit_class_type": "APO",
            "orbit_class_description": "Near-Earth asteroid orbits which cross the Earth’s orbit similar to that of 1862 Apollo",
            "orbit_class_range": "a (semi-major axis) > 1.0 AU; q (perihelion) < 1.017 AU"
        }
    },
    "is_sentry_object": false
}